ONEWEB-0534             
1 55797U 23029B   23309.45731624  .00000167  00000+0  31000-3 0  9998
2 55797  87.9700 104.5374 0001837  74.4144 285.7199 13.34105644 35115
ONEWEB-0556             
1 55798U 23029C   23309.49402699 -.00033248  00000+0 -67547-1 0  9991
2 55798  87.9684 104.5275 0002594  59.5466 300.5931 13.33776765 35127
ONEWEB-0562             
1 55799U 23029D   23309.44986066  .00000069  00000+0  11112-3 0  9994
2 55799  87.9679 104.5244 0002058  75.3603 284.7766 13.34131866 35118
ONEWEB-0563             
1 55800U 23029E   23309.47594903 -.00006574  00000+0 -13266-1 0  9994
2 55800  87.9665 104.5364 0001018  74.3818 285.7435 13.34129996 35116
ONEWEB-0564             
1 55801U 23029F   23309.45344444  .00000176  00000+0  32774-3 0  9993
2 55801  87.9677 104.5212 0002073  77.3608 282.7765 13.34099968 35112
ONEWEB-0638             
1 55802U 23029G   23309.49528634 -.00005843  00000+0 -15810-1 0  9991
2 55802  87.8950 119.7886 0001891  64.3927 295.7398 13.14480514 33975
ONEWEB-0639             
1 55803U 23029H   23309.57431373  .00000043  00000+0  75188-4 0  9996
2 55803  87.9186 134.9758 0001170  25.5179 334.6011 13.19723744 32999
ONEWEB-0640             
1 55804U 23029J   23309.50405485 -.00010906  00000+0 -29571-1 0  9998
2 55804  87.8932 119.7947 0002441  58.0816 302.0551 13.14305687 33996
